{
    "links": {
        "self": "http://www.neowsapp.com/rest/v1/neo/3386861?api_key=iIulBulltgU6a56xZRHN4H3l9WmuAYTsLGpBGhQ2"
    },
    "id": "3386861",
    "neo_reference_id": "3386861",
    "name": "(2007 SN6)",
    "designation": "2007 SN6",
    "nasa_jpl_url": "http://ssd.jpl.nasa.gov/sbdb.cgi?sstr=3386861",
    "absolute_magnitude_h": 25.2,
    "estimated_diameter": {
        "kilometers": {
            "estimated_diameter_min": 0.0242412481,
            "estimated_diameter_max": 0.0542050786
        },
        "meters": {
            "estimated_diameter_min": 24.2412481101,
            "estimated_diameter_max": 54.2050786336
        },
        "miles": {
            "estimated_diameter_min": 0.0150628086,
            "estimated_diameter_max": 0.0336814639
        },
        "feet": {
            "estimated_diameter_min": 79.5316564495,
            "estimated_diameter_max": 177.8381901842
        }
    },
    "is_potentially_hazardous_asteroid": false,
    "close_approach_data": [
        {
            "close_approach_date": "2007-09-16",
            "close_approach_date_full": "2007-Sep-16 21:07",
            "epoch_date_close_approach": 1189976820000,
            "relative_velocity": {
                "kilometers_per_second": "18.0601485902",
                "kilometers_per_hour": "65016.5349248755",
                "miles_per_hour": "40398.746381515"
            },
            "miss_distance": {
                "astronomical": "0.0126430516",
                "lunar": "4.9181470724",
                "kilometers": "1891373.589660092",
                "miles": "1175245.0517775896"
            },
            "orbiting_body": "Earth"
        }
    ],
    "orbital_data": {
        "orbit_id": "9",
        "orbit_determination_date": "2017-04-06 09:05:55",
        "first_observation_date": "2007-09-18",
        "last_observation_date": "2007-09-30",
        "data_arc_in_days": 12,
        "observations_used": 24,
        "orbit_uncertainty": "8",
        "minimum_orbit_intersection": ".00447351",
        "jupiter_tisserand_invariant": "3.192",
        "epoch_osculation": "2454366.5",
        "eccentricity": ".6881738965495212",
        "semi_major_axis": "2.341638946794911",
        "inclination": "4.746095242268886",
        "ascending_node_longitude": "357.4170961470745",
        "orbital_period": "1308.815187944008",
        "perihelion_distance": ".7301841484669401",
        "perihelion_argument": "286.0928394074986",
        "aphelion_distance": "3.953093745122882",
        "perihelion_time": "2454317.108393983154",
        "mean_anomaly": "13.5855530481705",
        "mean_motion": ".2750579327899739",
        "equinox": "J2000",
        "orbit_class": {
            "orbit_class_type": "APO",
            "orbit_class_description": "Near-Earth asteroid orbits which cross the Earth’s orbit similar to that of 1862 Apollo",
            "orbit_class_range": "a (semi-major axis) > 1.0 AU; q (perihelion) < 1.017 AU"
        }
    },
    "is_sentry_object": false
}